OBJECT B                
1 51825U 22019B   25115.90033640  .00030373  00000+0  79921-3 0  9990
2 51825  97.3878 192.1421 0010842 201.5148 158.5642 15.38451405175023
